[{"OBJECT_NAME":"HONGYUN 1","OBJECT_ID":"2018-108A","EPOCH":"2026-03-10T00:13:12.376992","MEAN_MOTION":13.50804473,"ECCENTRICITY":0.00109018,"INCLINATION":99.7768,"RA_OF_ASC_NODE":92.5913,"ARG_OF_PERICENTER":263.9195,"MEAN_ANOMALY":96.0698,"EPHEMERIS_TYPE":0,"CLASSIFICATION_TYPE":"U","NORAD_CAT_ID":43871,"ELEMENT_SET_NO":999,"REV_AT_EPOCH":35569,"BSTAR":-0.00022113401,"MEAN_MOTION_DOT":-1.87e-6,"MEAN_MOTION_DDOT":0},{"OBJECT_NAME":"SCOUT A R\/B","OBJECT_ID":"1967-048B","EPOCH":"2026-03-09T17:17:08.653920","MEAN_MOTION":13.49318681,"ECCENTRICITY":0.00176843,"INCLINATION":89.6852,"RA_OF_ASC_NODE":354.1166,"ARG_OF_PERICENTER":288.6674,"MEAN_ANOMALY":135.4113,"EPHEMERIS_TYPE":0,"CLASSIFICATION_TYPE":"U","NORAD_CAT_ID":2811,"ELEMENT_SET_NO":999,"REV_AT_EPOCH":89309,"BSTAR":0.00013503726,"MEAN_MOTION_DOT":9.5e-7,"MEAN_MOTION_DDOT":0}]
